{
  "type": "FeatureCollection",
  "features": [
    {
      "type": "Feature",
      "geometry": {
        "type": "Point",
        "coordinates": [
          0.86137,
          49.77423
        ]
      },
      "properties": {
        "incident_id": "HC-TA-20260907-E627A3A",
        "detection_count": 1,
        "satellite_count": 1,
        "satellites": "N",
        "sources": "VIIRS_SNPP_NRT",
        "first_detected_utc": "2026-09-07T12:53:00+00:00",
        "last_detected_utc": "2026-09-07T12:53:00+00:00",
        "duration_hours": 0.0,
        "peak_frp_mw": 3.61,
        "mean_frp_mw": 3.61,
        "max_confidence": "nominal",
        "daynight": "D",
        "in_wales_watch_bbox": false
      }
    },
    {
      "type": "Feature",
      "geometry": {
        "type": "Point",
        "coordinates": [
          -0.24667,
          53.63409
        ]
      },
      "properties": {
        "incident_id": "HC-TA-20260907-58C16FF",
        "detection_count": 6,
        "satellite_count": 2,
        "satellites": "N, N20",
        "sources": "VIIRS_NOAA20_NRT, VIIRS_SNPP_NRT",
        "first_detected_utc": "2026-09-07T01:24:00+00:00",
        "last_detected_utc": "2026-09-07T03:23:00+00:00",
        "duration_hours": 1.98,
        "peak_frp_mw": 1.06,
        "mean_frp_mw": 0.83,
        "max_confidence": "nominal",
        "daynight": "N",
        "in_wales_watch_bbox": false
      }
    },
    {
      "type": "Feature",
      "geometry": {
        "type": "Point",
        "coordinates": [
          -1.38653,
          53.39903
        ]
      },
      "properties": {
        "incident_id": "HC-TA-20260907-4736D64",
        "detection_count": 3,
        "satellite_count": 2,
        "satellites": "N, N20",
        "sources": "VIIRS_NOAA20_NRT, VIIRS_SNPP_NRT",
        "first_detected_utc": "2026-09-07T03:04:00+00:00",
        "last_detected_utc": "2026-09-07T03:23:00+00:00",
        "duration_hours": 0.32,
        "peak_frp_mw": 1.98,
        "mean_frp_mw": 1.7,
        "max_confidence": "nominal",
        "daynight": "N",
        "in_wales_watch_bbox": false
      }
    },
    {
      "type": "Feature",
      "geometry": {
        "type": "Point",
        "coordinates": [
          -1.36577,
          50.83216
        ]
      },
      "properties": {
        "incident_id": "HC-TA-20260907-1552406",
        "detection_count": 1,
        "satellite_count": 1,
        "satellites": "N20",
        "sources": "VIIRS_NOAA20_NRT",
        "first_detected_utc": "2026-09-07T03:23:00+00:00",
        "last_detected_utc": "2026-09-07T03:23:00+00:00",
        "duration_hours": 0.0,
        "peak_frp_mw": 0.89,
        "mean_frp_mw": 0.89,
        "max_confidence": "nominal",
        "daynight": "N",
        "in_wales_watch_bbox": false
      }
    },
    {
      "type": "Feature",
      "geometry": {
        "type": "Point",
        "coordinates": [
          -0.60374,
          53.57212
        ]
      },
      "properties": {
        "incident_id": "HC-TA-20260907-10F320C",
        "detection_count": 21,
        "satellite_count": 2,
        "satellites": "N, N21",
        "sources": "VIIRS_NOAA21_NRT, VIIRS_SNPP_NRT",
        "first_detected_utc": "2026-09-07T00:48:00+00:00",
        "last_detected_utc": "2026-09-07T03:04:00+00:00",
        "duration_hours": 2.27,
        "peak_frp_mw": 3.53,
        "mean_frp_mw": 1.61,
        "max_confidence": "nominal",
        "daynight": "N",
        "in_wales_watch_bbox": false
      }
    },
    {
      "type": "Feature",
      "geometry": {
        "type": "Point",
        "coordinates": [
          -3.19192,
          51.00088
        ]
      },
      "properties": {
        "incident_id": "HC-TA-20260907-E93A44B",
        "detection_count": 1,
        "satellite_count": 1,
        "satellites": "N21",
        "sources": "VIIRS_NOAA21_NRT",
        "first_detected_utc": "2026-09-07T02:28:00+00:00",
        "last_detected_utc": "2026-09-07T02:28:00+00:00",
        "duration_hours": 0.0,
        "peak_frp_mw": 1.09,
        "mean_frp_mw": 1.09,
        "max_confidence": "nominal",
        "daynight": "N",
        "in_wales_watch_bbox": false
      }
    },
    {
      "type": "Feature",
      "geometry": {
        "type": "Point",
        "coordinates": [
          -1.38073,
          54.42158
        ]
      },
      "properties": {
        "incident_id": "HC-TA-20260907-0FA74C6",
        "detection_count": 1,
        "satellite_count": 1,
        "satellites": "N21",
        "sources": "VIIRS_NOAA21_NRT",
        "first_detected_utc": "2026-09-07T02:28:00+00:00",
        "last_detected_utc": "2026-09-07T02:28:00+00:00",
        "duration_hours": 0.0,
        "peak_frp_mw": 0.41,
        "mean_frp_mw": 0.41,
        "max_confidence": "nominal",
        "daynight": "N",
        "in_wales_watch_bbox": false
      }
    },
    {
      "type": "Feature",
      "geometry": {
        "type": "Point",
        "coordinates": [
          -1.75373,
          53.33792
        ]
      },
      "properties": {
        "incident_id": "HC-TA-20260907-7548F1E",
        "detection_count": 2,
        "satellite_count": 1,
        "satellites": "N20",
        "sources": "VIIRS_NOAA20_NRT",
        "first_detected_utc": "2026-09-07T01:43:00+00:00",
        "last_detected_utc": "2026-09-07T01:43:00+00:00",
        "duration_hours": 0.0,
        "peak_frp_mw": 1.78,
        "mean_frp_mw": 1.68,
        "max_confidence": "nominal",
        "daynight": "N",
        "in_wales_watch_bbox": false
      }
    },
    {
      "type": "Feature",
      "geometry": {
        "type": "Point",
        "coordinates": [
          -1.10358,
          51.68284
        ]
      },
      "properties": {
        "incident_id": "HC-TA-20260907-6F3BD31",
        "detection_count": 1,
        "satellite_count": 1,
        "satellites": "N20",
        "sources": "VIIRS_NOAA20_NRT",
        "first_detected_utc": "2026-09-07T01:43:00+00:00",
        "last_detected_utc": "2026-09-07T01:43:00+00:00",
        "duration_hours": 0.0,
        "peak_frp_mw": 0.48,
        "mean_frp_mw": 0.48,
        "max_confidence": "nominal",
        "daynight": "N",
        "in_wales_watch_bbox": false
      }
    },
    {
      "type": "Feature",
      "geometry": {
        "type": "Point",
        "coordinates": [
          0.86201,
          58.35501
        ]
      },
      "properties": {
        "incident_id": "HC-TA-20260907-5B5309D",
        "detection_count": 2,
        "satellite_count": 1,
        "satellites": "N20",
        "sources": "VIIRS_NOAA20_NRT",
        "first_detected_utc": "2026-09-07T01:41:00+00:00",
        "last_detected_utc": "2026-09-07T01:41:00+00:00",
        "duration_hours": 0.0,
        "peak_frp_mw": 3.15,
        "mean_frp_mw": 3.15,
        "max_confidence": "nominal",
        "daynight": "N",
        "in_wales_watch_bbox": false
      }
    }
  ]
}